{"type": "FeatureCollection", "features": [ {"type": "Feature", "properties": {"norad_id": 37867, "name": "COSMOS 2476 (744)", "group": "gnss", "lat": -28.720863473341957, "lon": 64.66150824579691, "alt_km": 19138.72205259006, "timestamp": "2025-12-07T22:37:43.321270+00:00", "meta": {"OBJECT_NAME": "COSMOS 2476 (744)", "OBJECT_ID": "2011-064A", "EPOCH": "2025-12-02T19:57:36.313920", "MEAN_MOTION": 2.13101261, "ECCENTRICITY": 0.00239603, "INCLINATION": 65.1573, "RA_OF_ASC_NODE": 79.5068, "ARG_OF_PERICENTER": 233.4935, "MEAN_ANOMALY": 133.1658, "EPHEMERIS_TYPE": 0, "CLASSIFICATION_TYPE": "U", "NORAD_CAT_ID": 37867, "ELEMENT_SET_NO": 999, "REV_AT_EPOCH": 10958, "BSTAR": 0, "MEAN_MOTION_DOT": -2.2e-07, "MEAN_MOTION_DDOT": 0}, "tle": {"line1": "1 37867U 11064A   25336.83167030 -.00000022  00000+0  00000+0 0  9993", "line2": "2 37867  65.1573  79.5068 0023960 233.4935 133.1658  2.13101261109581"}}, "geometry": {"type": "Point", "coordinates": [64.66150824579691, -28.720863473341957]}}, {"type": "Feature", "properties": {"norad_id": 37868, "name": "COSMOS 2477 (745)", "group": "gnss", "lat": 28.330632181038293, "lon": -115.01542209599646, "alt_km": 19122.723600461948, "timestamp": "2025-12-07T22:37:43.321282+00:00", "meta": {"OBJECT_NAME": "COSMOS 2477 (745)", "OBJECT_ID": "2011-064B", "EPOCH": "2025-12-07T06:13:41.447136", "MEAN_MOTION": 2.13102693, "ECCENTRICITY": 0.00211549, "INCLINATION": 65.1658, "RA_OF_ASC_NODE": 79.4345, "ARG_OF_PERICENTER": 234.4805, "MEAN_ANOMALY": 109.9504, "EPHEMERIS_TYPE": 0, "CLASSIFICATION_TYPE": "U", "NORAD_CAT_ID": 37868, "ELEMENT_SET_NO": 999, "REV_AT_EPOCH": 10966, "BSTAR": 0, "MEAN_MOTION_DOT": -1.3e-07, "MEAN_MOTION_DDOT": 0}, "tle": {"line1": "1 37868U 11064B   25341.25950749 -.00000013  00000+0  00000+0 0  9993", "line2": "2 37868  65.1658  79.4345 0021154 234.4805 109.9504  2.13102693109663"}}, "geometry": {"type": "Point", "coordinates": [-115.01542209599646, 28.330632181038293]}}, {"type": "Feature", "properties": {"norad_id": 37869, "name": "COSMOS 2475 (743)", "group": "gnss", "lat": 61.503750588348886, "lon": -158.92055577249403, "alt_km": 19177.312587020864, "timestamp": "2025-12-07T22:37:43.321294+00:00", "meta": {"OBJECT_NAME": "COSMOS 2475 (743)", "OBJECT_ID": "2011-064C", "EPOCH": "2025-12-07T08:11:48.953184", "MEAN_MOTION": 2.13101364, "ECCENTRICITY": 0.00262336, "INCLINATION": 65.1729, "RA_OF_ASC_NODE": 79.4516, "ARG_OF_PERICENTER": 248.5614, "MEAN_ANOMALY": 114.7737, "EPHEMERIS_TYPE": 0, "CLASSIFICATION_TYPE": "U", "NORAD_CAT_ID": 37869, "ELEMENT_SET_NO": 999, "REV_AT_EPOCH": 10968, "BSTAR": 0, "MEAN_MOTION_DOT": -1.3e-07, "MEAN_MOTION_DDOT": 0}, "tle": {"line1": "1 37869U 11064C   25341.34153881 -.00000013  00000+0  00000+0 0  9996", "line2": "2 37869  65.1729  79.4516 0026233 248.5614 114.7737  2.13101364109688"}}, "geometry": {"type": "Point", "coordinates": [-158.92055577249403, 61.503750588348886]}}, {"type": "Feature", "properties": {"norad_id": 37948, "name": "BEIDOU-2 IGSO-5 (C10)", "group": "gnss", "lat": -37.794793449518664, "lon": 138.04255852954876, "alt_km": 35333.240578301775, "timestamp": "2025-12-07T22:37:43.321306+00:00", "meta": {"OBJECT_NAME": "BEIDOU-2 IGSO-5 (C10)", "OBJECT_ID": "2011-073A", "EPOCH": "2025-12-06T19:14:09.676896", "MEAN_MOTION": 1.00291748, "ECCENTRICITY": 0.01104743, "INCLINATION": 48.0318, "RA_OF_ASC_NODE": 273.9307, "ARG_OF_PERICENTER": 222.1618, "MEAN_ANOMALY": 320.8955, "EPHEMERIS_TYPE": 0, "CLASSIFICATION_TYPE": "U", "NORAD_CAT_ID": 37948, "ELEMENT_SET_NO": 999, "REV_AT_EPOCH": 5120, "BSTAR": 0, "MEAN_MOTION_DOT": -1.84e-06, "MEAN_MOTION_DDOT": 0}, "tle": {"line1": "1 37948U 11073A   25340.80150089 -.00000184  00000+0  00000+0 0  9990", "line2": "2 37948  48.0318 273.9307 0110474 222.1618 320.8955  1.00291748 51209"}}, "geometry": {"type": "Point", "coordinates": [138.04255852954876, -37.794793449518664]}}, {"type": "Feature", "properties": {"norad_id": 37951, "name": "LUCH 5A (SDCM/PRN 140)", "group": "gnss", "lat": 4.508528111906872, "lon": -136.34758700219942, "alt_km": 35763.52497907257, "timestamp": "2025-12-07T22:37:43.321326+00:00", "meta": {"OBJECT_NAME": "LUCH 5A (SDCM/PRN 140)", "OBJECT_ID": "2011-074B", "EPOCH": "2025-12-07T02:26:33.603648", "MEAN_MOTION": 1.00273813, "ECCENTRICITY": 0.00058544, "INCLINATION": 8.2652, "RA_OF_ASC_NODE": 76.6674, "ARG_OF_PERICENTER": 177.0025, "MEAN_ANOMALY": 26.1106, "EPHEMERIS_TYPE": 0, "CLASSIFICATION_TYPE": "U", "NORAD_CAT_ID": 37951, "ELEMENT_SET_NO": 999, "REV_AT_EPOCH": 5112, "BSTAR": 0, "MEAN_MOTION_DOT": -4.7e-07, "MEAN_MOTION_DDOT": 0}, "tle": {"line1": "1 37951U 11074B   25341.10177782 -.00000047  00000+0  00000+0 0  9996", "line2": "2 37951   8.2652  76.6674 0005854 177.0025  26.1106  1.00273813 51120"}}, "geometry": {"type": "Point", "coordinates": [-136.34758700219942, 4.508528111906872]}}, {"type": "Feature", "properties": {"norad_id": 38091, "name": "BEIDOU-2 G5 (C05)", "group": "gnss", "lat": 2.184501008143489, "lon": 115.08149452187037, "alt_km": 35838.02560116481, "timestamp": "2025-12-07T22:37:43.321342+00:00", "meta": {"OBJECT_NAME": "BEIDOU-2 G5 (C05)", "OBJECT_ID": "2012-008A", "EPOCH": "2025-12-07T03:38:26.717568", "MEAN_MOTION": 1.00273604, "ECCENTRICITY": 0.00125154, "INCLINATION": 3.0949, "RA_OF_ASC_NODE": 70.7251, "ARG_OF_PERICENTER": 226.4508, "MEAN_ANOMALY": 252.3414, "EPHEMERIS_TYPE": 0, "CLASSIFICATION_TYPE": "U", "NORAD_CAT_ID": 38091, "ELEMENT_SET_NO": 999, "REV_AT_EPOCH": 5044, "BSTAR": 0, "MEAN_MOTION_DOT": 6e-07, "MEAN_MOTION_DDOT": 0}, "tle": {"line1": "1 38091U 12008A   25341.15169812  .00000060  00000+0  00000+0 0  9994", "line2": "2 38091   3.0949  70.7251 0012515 226.4508 252.3414  1.00273604 50448"}}, "geometry": {"type": "Point", "coordinates": [115.08149452187037, 2.184501008143489]}}, {"type": "Feature", "properties": {"norad_id": 38250, "name": "BEIDOU-2 M3 (C11)", "group": "gnss", "lat": -45.595705592857634, "lon": -92.38650740666256, "alt_km": 21472.25315425536, "timestamp": "2025-12-07T22:37:43.321354+00:00", "meta": {"OBJECT_NAME": "BEIDOU-2 M3 (C11)", "OBJECT_ID": "2012-018A", "EPOCH": "2025-12-05T21:12:32.531040", "MEAN_MOTION": 1.86229708, "ECCENTRICITY": 0.00244284, "INCLINATION": 55.926, "RA_OF_ASC_NODE": 311.388, "ARG_OF_PERICENTER": 273.8805, "MEAN_ANOMALY": 85.8231, "EPHEMERIS_TYPE": 0, "CLASSIFICATION_TYPE": "U", "NORAD_CAT_ID": 38250, "ELEMENT_SET_NO": 999, "REV_AT_EPOCH": 9234, "BSTAR": 0, "MEAN_MOTION_DOT": -7e-07, "MEAN_MOTION_DDOT": 0}, "tle": {"line1": "1 38250U 12018A   25339.88370985 -.00000070  00000+0  00000+0 0  9996", "line2": "2 38250  55.9260 311.3880 0024428 273.8805  85.8231  1.86229708 92342"}}, "geometry": {"type": "Point", "coordinates": [-92.38650740666256, -45.595705592857634]}}, {"type": "Feature", "properties": {"norad_id": 38251, "name": "BEIDOU-2 M4 (C12)", "group": "gnss", "lat": -11.472939942248058, "lon": -57.393030301159854, "alt_km": 21514.151816135254, "timestamp": "2025-12-07T22:37:43.321366+00:00", "meta": {"OBJECT_NAME": "BEIDOU-2 M4 (C12)", "OBJECT_ID": "2012-018B", "EPOCH": "2025-12-06T21:21:07.920864", "MEAN_MOTION": 1.86229417, "ECCENTRICITY": 0.00155481, "INCLINATION": 55.8267, "RA_OF_ASC_NODE": 310.5837, "ARG_OF_PERICENTER": 277.2746, "MEAN_ANOMALY": 82.5325, "EPHEMERIS_TYPE": 0, "CLASSIFICATION_TYPE": "U", "NORAD_CAT_ID": 38251, "ELEMENT_SET_NO": 999, "REV_AT_EPOCH": 9236, "BSTAR": 0, "MEAN_MOTION_DOT": -7e-07, "MEAN_MOTION_DDOT": 0}, "tle": {"line1": "1 38251U 12018B   25340.88967501 -.00000070  00000+0  00000+0 0  9995", "line2": "2 38251  55.8267 310.5837 0015548 277.2746  82.5325  1.86229417 92364"}}, "geometry": {"type": "Point", "coordinates": [-57.393030301159854, -11.472939942248058]}}, {"type": "Feature", "properties": {"norad_id": 38652, "name": "SES-5 (EGNOS/PRN 136)", "group": "gnss", "lat": 0.07068731743440979, "lon": 61.35773502565989, "alt_km": 35795.7616372816, "timestamp": "2025-12-07T22:37:43.321378+00:00", "meta": {"OBJECT_NAME": "SES-5 (EGNOS/PRN 136)", "OBJECT_ID": "2012-036A", "EPOCH": "2025-12-06T15:24:07.748640", "MEAN_MOTION": 1.00270241, "ECCENTRICITY": 0.00022413, "INCLINATION": 0.0573, "RA_OF_ASC_NODE": 305.2788, "ARG_OF_PERICENTER": 306.2275, "MEAN_ANOMALY": 60.1789, "EPHEMERIS_TYPE": 0, "CLASSIFICATION_TYPE": "U", "NORAD_CAT_ID": 38652, "ELEMENT_SET_NO": 999, "REV_AT_EPOCH": 4253, "BSTAR": 0, "MEAN_MOTION_DOT": 4e-07, "MEAN_MOTION_DDOT": 0}, "tle": {"line1": "1 38652U 12036A   25340.64175635  .00000040  00000+0  00000+0 0  9999", "line2": "2 38652   0.0573 305.2788 0002241 306.2275  60.1789  1.00270241 42530"}}, "geometry": {"type": "Point", "coordinates": [61.35773502565989, 0.07068731743440979]}}, {"type": "Feature", "properties": {"norad_id": 38775, "name": "BEIDOU-2 M6 (C14)", "group": "gnss", "lat": 0.09704166929923294, "lon": -110.82817480168796, "alt_km": 21558.11216328398, "timestamp": "2025-12-07T22:37:43.321390+00:00", "meta": {"OBJECT_NAME": "BEIDOU-2 M6 (C14)", "OBJECT_ID": "2012-050B", "EPOCH": "2025-12-06T01:31:40.709568", "MEAN_MOTION": 1.86230702, "ECCENTRICITY": 0.00109743, "INCLINATION": 56.3728, "RA_OF_ASC_NODE": 69.289, "ARG_OF_PERICENTER": 345.7667, "MEAN_ANOMALY": 14.2153, "EPHEMERIS_TYPE": 0, "CLASSIFICATION_TYPE": "U", "NORAD_CAT_ID": 38775, "ELEMENT_SET_NO": 999, "REV_AT_EPOCH": 8971, "BSTAR": 0, "MEAN_MOTION_DOT": -4.7e-07, "MEAN_MOTION_DDOT": 0}, "tle": {"line1": "1 38775U 12050B   25340.06366562 -.00000047  00000+0  00000+0 0  9996", "line2": "2 38775  56.3728  69.2890 0010974 345.7667  14.2153  1.86230702 89716"}}, "geometry": {"type": "Point", "coordinates": [-110.82817480168796, 0.09704166929923294]}}]}